NOAA 1 [-]              
1 04793U 70106A   22251.12629659 -.00000033  00000+0  69899-4 0  9990
2 04793 101.5498 312.8319 0031899 160.8367 227.9028 12.54007211367954
NOAA 2 (ITOS-D) [-]     
1 06235U 72082A   22251.42936586 -.00000030  00000+0  10142-3 0  9994
2 06235 101.9612 234.2007 0003690 279.7843 234.5618 12.53151090282361
NOAA 3 [-]              
1 06920U 73086A   22251.40458527 -.00000025  00000+0  15651-3 0  9996
2 06920 102.2151 233.2058 0006575 134.5166  34.2399 12.40348149211070
NOAA 4 [-]              
1 07529U 74089A   22251.40176309 -.00000026  00000+0  12829-3 0  9996
2 07529 101.9215 231.3034 0008792 307.9594 177.5255 12.53159911186939
NOAA 5 [-]              
1 09057U 76077A   22251.41768503 -.00000031  00000+0  11112-3 0  9997
2 09057 102.1066 218.5449 0010056 348.6932 138.5850 12.37774101 84004
TIROS N [-]             
1 11060U 78096A   22251.16290676  .00000099  00000+0  68629-4 0  9999
2 11060  98.6283 302.6852 0009494 264.3444  95.6649 14.18410087483339
NOAA 6 [-]              
1 11416U 79057A   22251.30817201  .00000185  00000+0  82680-4 0  9996
2 11416  98.6651 262.2944 0010713  20.6998 339.4618 14.33792708253395
NOAA 7 [-]              
1 12553U 81059A   22251.39047777  .00000023  00000+0  34005-4 0  9995
2 12553  98.9922 296.8085 0010626 237.1757 122.8395 14.17342084129547
NOAA 8 [-]              
1 13923U 83022A   22251.26922640  .00000096  00000+0  55840-4 0  9996
2 13923  98.6932 241.5123 0014573 331.5248  28.5136 14.28828121 54237
NOAA 9 [-]              
1 15427U 84123A   22251.41274559  .00000085  00000+0  66074-4 0  9995
2 15427  99.0539 225.1308 0013924 292.4340 221.1257 14.16220035948353
NOAA 10 [-]             
1 16969U 86073A   22251.41205095  .00000084  00000+0  51209-4 0  9995
2 16969  98.5751 236.0642 0013388  71.0614  50.3367 14.28218033872679
NOAA 11 [-]             
1 19531U 88089A   22251.19772802  .00000039  00000+0  40764-4 0  9996
2 19531  98.4315 235.7585 0010165 304.1226  55.8984 14.15320469752522
NOAA 12 [-]             
1 21263U 91032A   22251.49888395  .00000056  00000+0  41367-4 0  9990
2 21263  98.5186 249.0069 0014866  95.9149 264.3726 14.26008003628566
NOAA 13 [-]             
1 22739U 93050A   22251.37517519  .00000065  00000+0  56779-4 0  9998
2 22739  98.5128 227.0702 0010647 103.9438 256.2920 14.12858969498767
NOAA 14 [-]             
1 23455U 94089A   22251.54597457  .00000024  00000+0  34146-4 0  9994
2 23455  98.4451 273.7446 0010675  86.4455 273.7939 14.14207262428458
NOAA 15 [B]             
1 25338U 98030A   22251.55768361  .00000111  00000+0  64633-4 0  9992
2 25338  98.6400 279.9885 0011319  59.3038 300.9256 14.26168101264862
NOAA 16 [-]             
1 26536U 00055A   22251.36815313  .00000045  00000+0  46542-4 0  9997
2 26536  98.6292 307.3806 0009413 291.0770  68.9396 14.13341342429068
NOAA 17 [-]             
1 27453U 02032A   22251.55993937  .00000056  00000+0  42419-4 0  9994
2 27453  98.6763 195.8696 0012563  34.8046 325.3953 14.25138284 50696
NOAA 18 [B]             
1 28654U 05018A   22251.49396803  .00000148  00000+0  10364-3 0  9992
2 28654  98.9434 321.8425 0015336  97.1788 263.1128 14.12772708891704
NOAA 19 [+]             
1 33591U 09005A   22251.57545052  .00000118  00000+0  88639-4 0  9997
2 33591  99.1425 287.4357 0013160 317.6620  42.3534 14.12606277699927
SUOMI NPP [+]           
1 37849U 11061A   22251.52487961  .00000047  00000+0  42939-4 0  9995
2 37849  98.7352 188.9358 0001230  80.5667  39.4684 14.19541713562987
NOAA 20 [+]             
1 43013U 17073A   22251.53588582  .00000038  00000+0  38764-4 0  9997
2 43013  98.7191 188.8017 0001189 111.3881 248.7422 14.19541689249016
